{
  "type": "FeatureCollection",
  "features": [
    {
      "type": "Feature",
      "properties": { "NAME_1": "Hà Nội", "code": "HN" },
      "geometry": {
        "type": "Polygon",
        "coordinates": [[
          [105.28, 20.56], [105.55, 20.53], [105.82, 20.62],
          [106.03, 20.80], [106.07, 21.10], [106.00, 21.40],
          [105.75, 21.38], [105.50, 21.28], [105.32, 21.05],
          [105.25, 20.82], [105.28, 20.56]
        ]]
      }
    },
    {
      "type": "Feature",
      "properties": { "NAME_1": "Hải Phòng", "code": "HP" },
      "geometry": {
        "type": "Polygon",
        "coordinates": [[
          [106.50, 20.62], [106.95, 20.58], [107.10, 20.75],
          [107.05, 21.05], [106.85, 21.12], [106.55, 21.05],
          [106.43, 20.88], [106.50, 20.62]
        ]]
      }
    },
    {
      "type": "Feature",
      "properties": { "NAME_1": "Quảng Ninh", "code": "QN" },
      "geometry": {
        "type": "Polygon",
        "coordinates": [[
          [106.90, 20.82], [107.50, 20.75], [108.05, 21.00],
          [108.10, 21.50], [107.80, 22.00], [107.20, 22.05],
          [106.95, 21.70], [106.85, 21.20], [106.90, 20.82]
        ]]
      }
    },
    {
      "type": "Feature",
      "properties": { "NAME_1": "Nghệ An", "code": "NA" },
      "geometry": {
        "type": "Polygon",
        "coordinates": [[
          [103.98, 18.65], [104.60, 18.60], [105.20, 18.70],
          [105.72, 18.90], [105.75, 19.40], [105.55, 20.00],
          [105.15, 20.05], [104.60, 19.85], [104.00, 19.50],
          [103.85, 19.00], [103.98, 18.65]
        ]]
      }
    },
    {
      "type": "Feature",
      "properties": { "NAME_1": "Thừa Thiên Huế", "code": "TTH" },
      "geometry": {
        "type": "Polygon",
        "coordinates": [[
          [107.02, 16.05], [107.55, 16.00], [108.08, 16.12],
          [108.22, 16.40], [108.10, 16.78], [107.68, 16.82],
          [107.20, 16.70], [106.95, 16.45], [107.02, 16.05]
        ]]
      }
    },
    {
      "type": "Feature",
      "properties": { "NAME_1": "Đà Nẵng", "code": "DN" },
      "geometry": {
        "type": "Polygon",
        "coordinates": [[
          [107.88, 15.90], [108.22, 15.88], [108.42, 16.08],
          [108.35, 16.22], [108.10, 16.20], [107.88, 16.15],
          [107.78, 16.00], [107.88, 15.90]
        ]]
      }
    },
    {
      "type": "Feature",
      "properties": { "NAME_1": "Gia Lai", "code": "GL" },
      "geometry": {
        "type": "Polygon",
        "coordinates": [[
          [107.50, 13.02], [108.20, 13.00], [108.88, 13.20],
          [108.95, 13.80], [108.75, 14.60], [108.20, 14.65],
          [107.60, 14.45], [107.35, 13.90], [107.40, 13.30],
          [107.50, 13.02]
        ]]
      }
    },
    {
      "type": "Feature",
      "properties": { "NAME_1": "Lâm Đồng", "code": "LD" },
      "geometry": {
        "type": "Polygon",
        "coordinates": [[
          [107.50, 11.22], [108.10, 11.18], [108.80, 11.45],
          [108.88, 12.00], [108.70, 12.60], [108.15, 12.65],
          [107.62, 12.42], [107.45, 11.90], [107.50, 11.22]
        ]]
      }
    },
    {
      "type": "Feature",
      "properties": { "NAME_1": "TP. Hồ Chí Minh", "code": "HCM" },
      "geometry": {
        "type": "Polygon",
        "coordinates": [[
          [106.38, 10.38], [107.00, 10.35], [107.05, 10.72],
          [106.92, 10.98], [106.55, 11.00], [106.32, 10.82],
          [106.30, 10.55], [106.38, 10.38]
        ]]
      }
    },
    {
      "type": "Feature",
      "properties": { "NAME_1": "Cần Thơ", "code": "CT" },
      "geometry": {
        "type": "Polygon",
        "coordinates": [[
          [105.52, 9.92], [105.98, 9.90], [106.00, 10.22],
          [105.95, 10.40], [105.60, 10.42], [105.45, 10.22],
          [105.52, 9.92]
        ]]
      }
    },
    {
      "type": "Feature",
      "properties": { "NAME_1": "Kiên Giang", "code": "KG" },
      "geometry": {
        "type": "Polygon",
        "coordinates": [[
          [103.95, 9.35], [104.80, 9.30], [105.48, 9.55],
          [105.50, 10.00], [105.20, 10.50], [104.60, 10.55],
          [104.00, 10.25], [103.82, 9.80], [103.95, 9.35]
        ]]
      }
    }
  ]
}
